OPTICUBE 04             
1 41851U 16067D   19204.50932448 -.00000258  00000-0 -17221-4 0  9994
2 41851  97.9183 302.5438 0007316 270.2691  89.7691 14.96817904147121
AEROCUBE 8D             
1 41852U 16067E   19204.17988184 -.00000367  00000-0 -26824-4 0  9996
2 41852  97.9192 302.0355 0008191 271.4836  88.5447 14.96730385147056
AEROCUBE 8C             
1 41853U 16067F   19204.27048250  .00000148  00000-0  18306-4 0  9990
2 41853  97.9181 302.0605 0008687 270.5985  89.4240 14.96688792147064
PROMETHEUS 2-1          
1 41854U 16067G   19204.23279460  .00000515  00000-0  50101-4 0  9993
2 41854  97.9201 302.1719 0008537 270.8772  89.1470 14.96919146147068
PROMETHEUS 2-3          
1 41855U 16067H   19204.10132373  .00000400  00000-0  40163-4 0  9991
2 41855  97.9204 302.0562 0008736 272.0308  87.9912 14.96924556147043
INS-1B                  
1 41954U 17008G   19204.16429684  .00000710  00000-0  32231-4 0  9998
2 41954  97.3977 268.7518 0010004  34.0473 326.1404 15.24000150135052
BGUSAT                  
1 41999U 17008BD  19204.23034409  .00001226  00000-0  50179-4 0  9996
2 41999  97.4055 271.3314 0009297  47.2318 312.9701 15.26200720134564
DIDO-2                  
1 42000U 17008BE  19204.22032468  .00000453  00000-0  21665-4 0  9991
2 42000  97.3990 269.3563 0009784  50.9767 309.2340 15.23934044134465
PEASSS                  
1 42015U 17008BV  19204.49030513  .00000634  00000-0  28344-4 0  9997
2 42015  97.3999 270.6327 0007753  56.8221 303.3759 15.24908081135055
AL-FARABI 1             
1 42016U 17008BW  19204.14664432  .00000812  00000-0  34831-4 0  9999
2 42016  97.4015 270.8733 0007593  57.2294 302.9675 15.25553791135154
NAYIF-1 (EO-88)         
1 42017U 17008BX  19204.13340527  .00000840  00000-0  35895-4 0  9997
2 42017  97.4011 270.8705 0007586  57.6910 302.5062 15.25587230135174
ALTAIR PATHFINDER       
1 42711U 98067LS  19204.21718148  .00033434  00000-0  15695-3 0  9999
2 42711  51.6333 110.4291 0000738 265.4546  94.6372 15.82849304124558
NJUST-1                 
1 42722U 98067MB  19201.13118119  .02828887  12202-4  39331-3 0  9991
2 42722  51.6139  97.9553 0012743 244.1662 264.8455 16.33980456123504
NSIGHT                  
1 42726U 98067MF  19204.23235876  .00016298  00000-0  12415-3 0  9995
2 42726  51.6358 131.8944 0003543 318.0016  42.0710 15.72414624123258
UCLSAT                  
1 42765U 17036A   19204.10184486  .00000659  00000-0  31133-4 0  9994
2 42765  97.3486 261.3732 0013216 106.8594 253.4093 15.22787199115704
LITUANICASAT-2          
1 42768U 17036D   19204.21071741  .00001246  00000-0  55973-4 0  9999
2 42768  97.3522 261.1004 0016915  98.4641 261.8514 15.22872150115563
AALTO-1                 
1 42775U 17036L   19204.12773068  .00000439  00000-0  22599-4 0  9999
2 42775  97.3470 260.0680 0015744  98.8522 261.4497 15.21368143115446
URSA MAIOR              
1 42776U 17036M   19203.62511584  .00000485  00000-0  24520-4 0  9994
2 42776  97.3480 259.7359 0015575 100.4366 259.8626 15.21502730115373
COMPASS 2               
1 42777U 17036N   19203.83268311  .00000946  00000-0  43171-4 0  9990
2 42777  97.3520 261.1938 0014328 100.5180 259.7672 15.22952585115467
DIAMOND RED             
1 42783U 17036U   19203.83077025  .00000573  00000-0  27849-4 0  9997
2 42783  97.3486 260.6824 0013876 108.7941 251.4802 15.22237440115443
PEGASUS                 
1 42784U 17036V   19204.13189615  .00000650  00000-0  30948-4 0  9991
2 42784  97.3491 261.2127 0013755 107.3434 252.9308 15.22534476115504
DIAMOND GREEN           
1 42785U 17036W   19204.09249780  .00000541  00000-0  26476-4 0  9997
2 42785  97.3488 260.9632 0013769 108.4686 251.8048 15.22238077115477
DIAMOND BLUE            
1 42786U 17036X   19204.15738657  .00000564  00000-0  27490-4 0  9993
2 42786  97.3488 261.0248 0013612 108.4649 251.8068 15.22235842115490
NUDTSAT                 
1 42787U 17036Y   19203.91088362  .00001204  00000-0  53269-4 0  9993
2 42787  97.3521 261.7290 0012146 100.4790 259.7814 15.23518199115354
SUCHAI                  
1 42788U 17036Z   19204.12958129  .00000771  00000-0  35735-4 0  9991
2 42788  97.3495 261.5323 0013333 106.5595 253.7108 15.22956881115598
SKCUBE                  
1 42789U 17036AA  19203.88478935  .00000720  00000-0  33667-4 0  9992
2 42789  97.3492 261.2292 0013197 107.4225 252.8456 15.22853642115470
VZLUSAT-1               
1 42790U 17036AB  19203.83207441  .00000962  00000-0  43132-4 0  9997
2 42790  97.3506 261.6552 0012792 106.7510 253.5132 15.23512326115493
ROBUSTA-1B              
1 42792U 17036AD  19204.40323331  .00000774  00000-0  35807-4 0  9991
2 42792  97.3492 261.8925 0012791 106.3520 253.9124 15.23022909115578
CICERO 6                
1 42793U 17036AE  19204.40649782  .00000509  00000-0  24828-4 0  9990
2 42793  97.3475 261.6544 0012011 107.7066 252.5483 15.22608693115639
D-SAT                   
1 42794U 17036AF  19203.69639643  .00000026  00000-0  76727-5 0  9996
2 42794  97.5369 246.8979 0127267  29.0060 331.8153 14.91109807113407
CORVUS BC2              
1 42846U 17042X   19203.74903189 -.00000097  00000-0 -43132-5 0  9990
2 42846  97.5620  96.3878 0008350 308.0478  51.9987 14.91982497110096
CORVUS BC1              
1 42847U 17042Y   19204.16942190  .00000122  00000-0  17330-4 0  9990
2 42847  97.5621  96.9033 0007952 305.9769  54.0712 14.92082634110155
MIRATA                  
1 43015U 17073C   19204.52727937  .00000989  00000-0  81737-4 0  9995
2 43015  97.7184 124.3830 0256548  44.5050 317.6458 14.79020670 90447
MAKERSAT 0              
1 43016U 17073D   19203.73524109  .00000656  00000-0  55893-4 0  9999
2 43016  97.7217 123.8231 0258737  47.4812 314.7939 14.78762207 90321
ASTERIA                 
1 43020U 98067NH  19204.27134167  .00016137  00000-0  12743-3 0  9994
2 43020  51.6422 142.8879 0000874 255.6958 104.3943 15.71565974 95298
DELLINGR (RBLE)         
1 43021U 98067NJ  19204.35792352  .00005722  00000-0  66243-4 0  9993
2 43021  51.6376 156.8593 0001441 225.9862 134.1014 15.63516987 95112
AEROCUBE 7B (OCSD B)    
1 43042U 17071F   19203.61003252  .00001093  00000-0  35478-4 0  9997
2 43042  51.6386 247.0786 0004164 279.6514  80.4001 15.41329926 91316
AEROCUBE 7C (OCSD C)    
1 43043U 17071G   19203.67485672  .00001360  00000-0  41779-4 0  9992
2 43043  51.6387 246.7755 0004417 284.5711  75.4784 15.41333362 91293
CHEFSAT                 
1 43044U 17071H   19204.51232476  .00002949  00000-0  72587-4 0  9994
2 43044  51.6378 236.7446 0004331 287.1275  72.9237 15.44059340 91502
ASGARDIA 1              
1 43049U 17071N   19204.40204919  .00001291  00000-0  39946-4 0  9999
2 43049  51.6394 242.6638 0002048 310.4093  49.6713 15.41456311 91400
ISARA                   
1 43050U 17071P   19204.15079091  .00002361  00000-0  60879-4 0  9992
2 43050  51.6369 239.5345 0001958 306.4817  53.5989 15.43560383 91420
PROPCUBE 2 (FAUNA)      
1 43052U 17071R   19204.14213374  .00001318  00000-0  40246-4 0  9994
2 43052  51.6393 243.1965 0001951 304.7519  55.3283 15.41741583 91373
CORVUS BC3              
1 43118U 18004H   19204.23394155  .00000430  00000-0  21379-4 0  9991
2 43118  97.4846 271.4750 0011827 125.9637 234.2698 15.22875690 84736
MICROMAS-2A             
1 43131U 18004W   19203.88278625  .00001022  00000-0  44873-4 0  9991
2 43131  97.4873 271.8906 0010807 127.8748 232.3468 15.24188998 84722
CICERO 7                
1 43143U 18004AJ  19204.42840934  .00000906  00000-0  40017-4 0  9999
2 43143  97.4859 272.6505 0008806 133.0380 227.1596 15.24315913 84824
GOMX-4B                 
1 43196U 18015E   19203.91344193  .00000259  00000-0  13629-4 0  9998
2 43196  97.3951 330.9789 0018495 183.3106 176.8008 15.23966742 81551
GOMX-4A                 
1 43197U 18015F   19204.49544507  .00000184  00000-0  10505-4 0  9991
2 43197  97.3975 331.5814 0019132 181.0459 242.1527 15.24061207 81656
1KUNS-PF                
1 43466U 98067NP  19204.29571649  .00014727  00000-0  13987-3 0  9994
2 43466  51.6362 158.6595 0000500  51.0381 309.0659 15.67132659 68348
UBAKUSAT                
1 43467U 98067NQ  19204.38396325  .00008482  00000-0  95966-4 0  9990
2 43467  51.6364 163.0034 0001655 182.8010 177.2975 15.63366102 68303
BATSU-CS1 (IRAZU)       
1 43468U 98067NR  19203.90014516  .00021604  00000-0  17765-3 0  9998
2 43468  51.6352 156.7351 0000839  50.1330 309.9741 15.70354339168322
CUBERRT                 
1 43546U 98067NU  19204.11715893  .00013696  00000-0  13827-3 0  9992
2 43546  51.6373 164.9699 0003440 272.3595  87.7007 15.65670725 58384
TEMPEST-D               
1 43547U 98067NV  19204.17011409  .00002953  00000-0  44879-4 0  9997
2 43547  51.6379 173.5771 0004970 254.9451 105.0991 15.58227105 57954
RAINCUBE                
1 43548U 98067NW  19204.15343832  .00008465  00000-0  10092-3 0  9997
2 43548  51.6360 168.9478 0004478 269.2094  90.8387 15.61999706 58466
HALOSAT                 
1 43549U 98067NX  19204.09452073  .00006715  00000-0  81600-4 0  9999
2 43549  51.6370 169.3179 0004535 272.6414  87.4061 15.61905956 58015
ENDUROSAT ONE           
1 43551U 98067NZ  19204.14508203  .00010678  00000-0  11823-3 0  9997
2 43551  51.6366 166.6582 0004710 282.8149  77.2319 15.63594596 58462
EQUISAT                 
1 43552U 98067PA  19204.15348150  .00008429  00000-0  99590-4 0  9991
2 43552  51.6380 168.2384 0005121 279.8887  80.1529 15.62243858 58400
AEROCUBE 12A            
1 43556U 18046C   19203.77546212 -.00000229  00000-0  45870-5 0  9994
2 43556  51.6417 253.1515 0008349 188.8022 171.2812 15.28778795 56770
AEROCUBE 12B            
1 43557U 18046D   19203.59576331  .00000024  00000-0  13530-4 0  9999
2 43557  51.6423 254.1977 0008339 188.4935 171.5905 15.28647104 56695
UITMSAT-1               
1 43589U 98067PD  19204.15373478  .00009606  00000-0  11192-3 0  9991
2 43589  51.6352 168.9310 0004537 290.5508  69.4999 15.62413766 54139
